{"type": "FeatureCollection", "features": [ {"type": "Feature", "properties": {"norad_id": 38755, "name": "SPOT 6", "group": "resource", "lat": 26.6825224960281, "lon": 37.49401909428921, "alt_km": 696.5032171338289, "timestamp": "2025-12-02T15:49:06.839771+00:00", "meta": {"OBJECT_NAME": "SPOT 6", "OBJECT_ID": "2012-047A", "EPOCH": "2025-12-02T05:49:00.647904", "MEAN_MOTION": 14.58586937, "ECCENTRICITY": 0.00010304, "INCLINATION": 98.1586, "RA_OF_ASC_NODE": 41.2194, "ARG_OF_PERICENTER": 99.647, "MEAN_ANOMALY": 260.4846, "EPHEMERIS_TYPE": 0, "CLASSIFICATION_TYPE": "U", "NORAD_CAT_ID": 38755, "ELEMENT_SET_NO": 999, "REV_AT_EPOCH": 70434, "BSTAR": 0.00013222483, "MEAN_MOTION_DOT": 5.7e-06, "MEAN_MOTION_DDOT": 0}, "tle": {"line1": "1 38755U 12047A   25336.24236861  .00000570  00000+0  13222-3 0  9997", "line2": "2 38755  98.1586  41.2194 0001030  99.6470 260.4846 14.58586937704341"}}, "geometry": {"type": "Point", "coordinates": [37.49401909428921, 26.6825224960281]}}, {"type": "Feature", "properties": {"norad_id": 39019, "name": "PLEIADES 1B", "group": "resource", "lat": -70.80748116167119, "lon": 73.87919535593186, "alt_km": 706.0211925150161, "timestamp": "2025-12-02T15:49:06.839782+00:00", "meta": {"OBJECT_NAME": "PLEIADES 1B", "OBJECT_ID": "2012-068A", "EPOCH": "2025-12-02T07:55:07.038048", "MEAN_MOTION": 14.58536262, "ECCENTRICITY": 0.00012621, "INCLINATION": 98.1806, "RA_OF_ASC_NODE": 49.1455, "ARG_OF_PERICENTER": 88.0729, "MEAN_ANOMALY": 272.0615, "EPHEMERIS_TYPE": 0, "CLASSIFICATION_TYPE": "U", "NORAD_CAT_ID": 39019, "ELEMENT_SET_NO": 999, "REV_AT_EPOCH": 69215, "BSTAR": 0.00013517157, "MEAN_MOTION_DOT": 5.83e-06, "MEAN_MOTION_DDOT": 0}, "tle": {"line1": "1 39019U 12068A   25336.32994257  .00000583  00000+0  13517-3 0  9994", "line2": "2 39019  98.1806  49.1455 0001262  88.0729 272.0615 14.58536262692157"}}, "geometry": {"type": "Point", "coordinates": [73.87919535593186, -70.80748116167119]}}, {"type": "Feature", "properties": {"norad_id": 39030, "name": "GOKTURK 2", "group": "resource", "lat": -74.7460125717546, "lon": -30.89295677888409, "alt_km": 652.171539264812, "timestamp": "2025-12-02T15:49:06.839792+00:00", "meta": {"OBJECT_NAME": "GOKTURK 2", "OBJECT_ID": "2012-073A", "EPOCH": "2025-12-02T06:31:08.750784", "MEAN_MOTION": 14.75267385, "ECCENTRICITY": 7.977e-05, "INCLINATION": 97.69, "RA_OF_ASC_NODE": 178.4396, "ARG_OF_PERICENTER": 92.1357, "MEAN_ANOMALY": 267.9944, "EPHEMERIS_TYPE": 0, "CLASSIFICATION_TYPE": "U", "NORAD_CAT_ID": 39030, "ELEMENT_SET_NO": 999, "REV_AT_EPOCH": 69547, "BSTAR": 0.00014081382, "MEAN_MOTION_DOT": 9.06e-06, "MEAN_MOTION_DDOT": 0}, "tle": {"line1": "1 39030U 12073A   25336.27162906  .00000906  00000+0  14081-3 0  9991", "line2": "2 39030  97.6900 178.4396 0000797  92.1357 267.9944 14.75267385695476"}}, "geometry": {"type": "Point", "coordinates": [-30.89295677888409, -74.7460125717546]}}, {"type": "Feature", "properties": {"norad_id": 39084, "name": "LANDSAT 8", "group": "resource", "lat": 30.042458368304136, "lon": -130.33049046750338, "alt_km": 700.5822932093979, "timestamp": "2025-12-02T15:49:06.839802+00:00", "meta": {"OBJECT_NAME": "LANDSAT 8", "OBJECT_ID": "2013-008A", "EPOCH": "2025-12-02T05:14:47.104800", "MEAN_MOTION": 14.57123446, "ECCENTRICITY": 0.00010762, "INCLINATION": 98.2085, "RA_OF_ASC_NODE": 44.4467, "ARG_OF_PERICENTER": 88.2783, "MEAN_ANOMALY": 271.8539, "EPHEMERIS_TYPE": 0, "CLASSIFICATION_TYPE": "U", "NORAD_CAT_ID": 39084, "ELEMENT_SET_NO": 999, "REV_AT_EPOCH": 66921, "BSTAR": 0.00014479616, "MEAN_MOTION_DOT": 6.07e-06, "MEAN_MOTION_DDOT": 0}, "tle": {"line1": "1 39084U 13008A   25336.21860075  .00000607  00000+0  14480-3 0  9996", "line2": "2 39084  98.2085  44.4467 0001076  88.2783 271.8539 14.57123446669213"}}, "geometry": {"type": "Point", "coordinates": [-130.33049046750338, 30.042458368304136]}}, {"type": "Feature", "properties": {"norad_id": 39086, "name": "SARAL", "group": "resource", "lat": -61.29911146371308, "lon": 176.6705438122937, "alt_km": 791.5145086799521, "timestamp": "2025-12-02T15:49:06.839813+00:00", "meta": {"OBJECT_NAME": "SARAL", "OBJECT_ID": "2013-009A", "EPOCH": "2025-12-02T07:43:46.773696", "MEAN_MOTION": 14.32751098, "ECCENTRICITY": 0.000259, "INCLINATION": 98.5506, "RA_OF_ASC_NODE": 160.3883, "ARG_OF_PERICENTER": 128.7534, "MEAN_ANOMALY": 231.3882, "EPHEMERIS_TYPE": 0, "CLASSIFICATION_TYPE": "U", "NORAD_CAT_ID": 39086, "ELEMENT_SET_NO": 999, "REV_AT_EPOCH": 66741, "BSTAR": 9.3115579e-05, "MEAN_MOTION_DOT": 2.1e-06, "MEAN_MOTION_DDOT": 0}, "tle": {"line1": "1 39086U 13009A   25336.32206914  .00000210  00000+0  93116-4 0  9991", "line2": "2 39086  98.5506 160.3883 0002590 128.7534 231.3882 14.32751098667417"}}, "geometry": {"type": "Point", "coordinates": [176.6705438122937, -61.29911146371308]}}, {"type": "Feature", "properties": {"norad_id": 39150, "name": "GAOFEN-1", "group": "resource", "lat": -68.73994155992388, "lon": 68.49982216942445, "alt_km": 652.874069834751, "timestamp": "2025-12-02T15:49:06.839823+00:00", "meta": {"OBJECT_NAME": "GAOFEN-1", "OBJECT_ID": "2013-018A", "EPOCH": "2025-12-02T08:00:17.226144", "MEAN_MOTION": 14.76503642, "ECCENTRICITY": 0.00175705, "INCLINATION": 97.9339, "RA_OF_ASC_NODE": 47.1762, "ARG_OF_PERICENTER": 175.7309, "MEAN_ANOMALY": 184.4054, "EPHEMERIS_TYPE": 0, "CLASSIFICATION_TYPE": "U", "NORAD_CAT_ID": 39150, "ELEMENT_SET_NO": 999, "REV_AT_EPOCH": 67919, "BSTAR": 0.00016999557, "MEAN_MOTION_DOT": 1.136e-05, "MEAN_MOTION_DDOT": 0}, "tle": {"line1": "1 39150U 13018A   25336.33353271  .00001136  00000+0  17000-3 0  9998", "line2": "2 39150  97.9339  47.1762 0017570 175.7309 184.4054 14.76503642679195"}}, "geometry": {"type": "Point", "coordinates": [68.49982216942445, -68.73994155992388]}}, {"type": "Feature", "properties": {"norad_id": 39160, "name": "VNREDSAT 1", "group": "resource", "lat": 52.05463503137034, "lon": 21.977647782355405, "alt_km": 671.7243054238725, "timestamp": "2025-12-02T15:49:06.839833+00:00", "meta": {"OBJECT_NAME": "VNREDSAT 1", "OBJECT_ID": "2013-021B", "EPOCH": "2025-12-02T07:22:54.904224", "MEAN_MOTION": 14.64896813, "ECCENTRICITY": 0.00013799, "INCLINATION": 97.9388, "RA_OF_ASC_NODE": 31.9476, "ARG_OF_PERICENTER": 84.0057, "MEAN_ANOMALY": 276.1304, "EPHEMERIS_TYPE": 0, "CLASSIFICATION_TYPE": "U", "NORAD_CAT_ID": 39160, "ELEMENT_SET_NO": 999, "REV_AT_EPOCH": 67146, "BSTAR": 0.00019092225, "MEAN_MOTION_DOT": 9.75e-06, "MEAN_MOTION_DDOT": 0}, "tle": {"line1": "1 39160U 13021B   25336.30757991  .00000975  00000+0  19092-3 0  9990", "line2": "2 39160  97.9388  31.9476 0001379  84.0057 276.1304 14.64896813671466"}}, "geometry": {"type": "Point", "coordinates": [21.977647782355405, 52.05463503137034]}}, {"type": "Feature", "properties": {"norad_id": 39227, "name": "ARIRANG-5 (KOMPSAT-5)", "group": "resource", "lat": 42.800082544844166, "lon": -11.775634666667782, "alt_km": 547.7788609766558, "timestamp": "2025-12-02T15:49:06.839843+00:00", "meta": {"OBJECT_NAME": "ARIRANG-5 (KOMPSAT-5)", "OBJECT_ID": "2013-042A", "EPOCH": "2025-12-02T07:13:57.216288", "MEAN_MOTION": 15.04497087, "ECCENTRICITY": 0.00043685, "INCLINATION": 97.6161, "RA_OF_ASC_NODE": 160.7542, "ARG_OF_PERICENTER": 83.8728, "MEAN_ANOMALY": 276.2996, "EPHEMERIS_TYPE": 0, "CLASSIFICATION_TYPE": "U", "NORAD_CAT_ID": 39227, "ELEMENT_SET_NO": 999, "REV_AT_EPOCH": 67425, "BSTAR": 0.00017847913, "MEAN_MOTION_DOT": 2.438e-05, "MEAN_MOTION_DDOT": 0}, "tle": {"line1": "1 39227U 13042A   25336.30135667  .00002438  00000+0  17848-3 0  9990", "line2": "2 39227  97.6161 160.7542 0004368  83.8728 276.2996 15.04497087674257"}}, "geometry": {"type": "Point", "coordinates": [-11.775634666667782, 42.800082544844166]}}, {"type": "Feature", "properties": {"norad_id": 39418, "name": "SKYSAT-A", "group": "resource", "lat": -73.09488292458961, "lon": -178.1913859370577, "alt_km": 525.6199455232072, "timestamp": "2025-12-02T15:49:06.839854+00:00", "meta": {"OBJECT_NAME": "SKYSAT-A", "OBJECT_ID": "2013-066C", "EPOCH": "2025-12-02T01:58:57.538560", "MEAN_MOTION": 15.11477798, "ECCENTRICITY": 0.00205098, "INCLINATION": 97.413, "RA_OF_ASC_NODE": 26.6153, "ARG_OF_PERICENTER": 275.99, "MEAN_ANOMALY": 83.8993, "EPHEMERIS_TYPE": 0, "CLASSIFICATION_TYPE": "U", "NORAD_CAT_ID": 39418, "ELEMENT_SET_NO": 999, "REV_AT_EPOCH": 65869, "BSTAR": 0.00027855021, "MEAN_MOTION_DOT": 4.673e-05, "MEAN_MOTION_DDOT": 0}, "tle": {"line1": "1 39418U 13066C   25336.08261040  .00004673  00000+0  27855-3 0  9990", "line2": "2 39418  97.4130  26.6153 0020509 275.9900  83.8993 15.11477798658696"}}, "geometry": {"type": "Point", "coordinates": [-178.1913859370577, -73.09488292458961]}}, {"type": "Feature", "properties": {"norad_id": 39419, "name": "DUBAISAT-2", "group": "resource", "lat": 24.458239696367453, "lon": 150.78910525849824, "alt_km": 548.5044397813108, "timestamp": "2025-12-02T15:49:06.839865+00:00", "meta": {"OBJECT_NAME": "DUBAISAT-2", "OBJECT_ID": "2013-066D", "EPOCH": "2025-12-02T07:10:16.623264", "MEAN_MOTION": 15.08196462, "ECCENTRICITY": 0.00116277, "INCLINATION": 97.4444, "RA_OF_ASC_NODE": 327.0304, "ARG_OF_PERICENTER": 0.0092, "MEAN_ANOMALY": 0.1135, "EPHEMERIS_TYPE": 0, "CLASSIFICATION_TYPE": "U", "NORAD_CAT_ID": 39419, "ELEMENT_SET_NO": 999, "REV_AT_EPOCH": 65669, "BSTAR": 0.00039117221, "MEAN_MOTION_DOT": 5.999e-05, "MEAN_MOTION_DDOT": 0}, "tle": {"line1": "1 39419U 13066D   25336.29880351  .00005999  00000+0  39117-3 0  9992", "line2": "2 39419  97.4444 327.0304 0011627   0.0092   0.1135 15.08196462656691"}}, "geometry": {"type": "Point", "coordinates": [150.78910525849824, 24.458239696367453]}}]}